{
  "norad_id": 68280,
  "name": "STARLINK-37070",
  "history": [
    {
      "epoch": "2026-03-28T20:00:01.999872Z",
      "apogee_km": 282.8780385693253,
      "perigee_km": 281.67876417215575,
      "latitude_deg": 50.44640332257819,
      "longitude_deg": -129.12951101199002,
      "height_km": 287.74694474108287,
      "semi_major_axis_km": 6660.41540137074,
      "eccentricity": 9.003e-05,
      "inclination_deg": 53.1578,
      "raan_deg": 241.554,
      "arg_perigee_deg": 61.0511,
      "mean_anomaly_deg": 44.9331,
      "mean_motion_rev_day": 15.97168688
    },
    {
      "epoch": "2026-03-29T04:00:01.999584Z",
      "apogee_km": 284.7995821848899,
      "perigee_km": 283.9294594862695,
      "latitude_deg": -33.483055310992206,
      "longitude_deg": -157.2183116235051,
      "height_km": 295.2624291364565,
      "semi_major_axis_km": 6662.50152083558,
      "eccentricity": 6.53e-05,
      "inclination_deg": 53.1573,
      "raan_deg": 239.8419,
      "arg_perigee_deg": 70.2786,
      "mean_anomaly_deg": 152.9902,
      "mean_motion_rev_day": 15.96418604
    },
    {
      "epoch": "2026-03-30T04:00:01.999584Z",
      "apogee_km": 292.0207419166063,
      "perigee_km": 290.8975819229381,
      "latitude_deg": -23.2549574908705,
      "longitude_deg": -174.17443341256,
      "height_km": 298.5488723198907,
      "semi_major_axis_km": 6669.5961619197715,
      "eccentricity": 8.42e-05,
      "inclination_deg": 53.1576,
      "raan_deg": 234.7237,
      "arg_perigee_deg": 70.005,
      "mean_anomaly_deg": 139.2894,
      "mean_motion_rev_day": 15.93872047
    },
    {
      "epoch": "2026-03-30T06:00:02.000160Z",
      "apogee_km": 292.59123336601715,
      "perigee_km": 291.7610461926397,
      "latitude_deg": -25.522895985625755,
      "longitude_deg": -64.19262066759843,
      "height_km": 299.7482489057971,
      "semi_major_axis_km": 6670.313139779329,
      "eccentricity": 6.223e-05,
      "inclination_deg": 53.1574,
      "raan_deg": 234.2978,
      "arg_perigee_deg": 72.1343,
      "mean_anomaly_deg": 255.57,
      "mean_motion_rev_day": 15.93615071
    },
    {
      "epoch": "2026-03-30T14:00:03.000384Z",
      "apogee_km": 295.44579044684997,
      "perigee_km": 294.15404331848094,
      "latitude_deg": 52.31199048953038,
      "longitude_deg": -90.73018268157757,
      "height_km": 300.4809139877991,
      "semi_major_axis_km": 6672.936916882665,
      "eccentricity": 9.679e-05,
      "inclination_deg": 53.1573,
      "raan_deg": 232.598,
      "arg_perigee_deg": 70.8227,
      "mean_anomaly_deg": 9.8438,
      "mean_motion_rev_day": 15.92675257
    },
    {
      "epoch": "2026-03-30T22:00:00.999936Z",
      "apogee_km": 298.2712062940054,
      "perigee_km": 296.85088477783756,
      "latitude_deg": -9.942659797265653,
      "longitude_deg": -99.90134379533367,
      "height_km": 300.78648387351916,
      "semi_major_axis_km": 6675.698045535921,
      "eccentricity": 0.00010638,
      "inclination_deg": 53.157,
      "raan_deg": 230.9001,
      "arg_perigee_deg": 59.3956,
      "mean_anomaly_deg": 132.8777,
      "mean_motion_rev_day": 15.91687242
    },
    {
      "epoch": "2026-03-31T20:00:01.999008Z",
      "apogee_km": 305.62057069779075,
      "perigee_km": 304.14896930403756,
      "latitude_deg": 33.644617733385516,
      "longitude_deg": 126.7524525471532,
      "height_km": 306.4766554851318,
      "semi_major_axis_km": 6683.021770000914,
      "eccentricity": 0.0001101,
      "inclination_deg": 53.1572,
      "raan_deg": 226.2413,
      "arg_perigee_deg": 49.4384,
      "mean_anomaly_deg": 354.2164,
      "mean_motion_rev_day": 15.89071535
    },
    {
      "epoch": "2026-04-01T20:00:01.999008Z",
      "apogee_km": 314.4359684131159,
      "perigee_km": 313.3625657958728,
      "latitude_deg": 1.5446557158361287,
      "longitude_deg": 92.1325203710142,
      "height_km": 314.301279784205,
      "semi_major_axis_km": 6692.036267104494,
      "eccentricity": 8.02e-05,
      "inclination_deg": 53.1576,
      "raan_deg": 221.1804,
      "arg_perigee_deg": 53.8426,
      "mean_anomaly_deg": 308.1852,
      "mean_motion_rev_day": 15.85861782
    },
    {
      "epoch": "2026-04-02T20:00:01.999008Z",
      "apogee_km": 323.87676959556484,
      "perigee_km": 322.6249503433237,
      "latitude_deg": -38.90889859576626,
      "longitude_deg": 47.99316896989689,
      "height_km": 336.2389690979676,
      "semi_major_axis_km": 6701.387859969444,
      "eccentricity": 9.34e-05,
      "inclination_deg": 53.1583,
      "raan_deg": 216.1439,
      "arg_perigee_deg": 64.9151,
      "mean_anomaly_deg": 243.7197,
      "mean_motion_rev_day": 15.82543404
    },
    {
      "epoch": "2026-04-02T22:00:01.999584Z",
      "apogee_km": 324.633559118628,
      "perigee_km": 323.11836802782364,
      "latitude_deg": 45.955199413013624,
      "longitude_deg": 104.83602930850886,
      "height_km": 328.0315944807811,
      "semi_major_axis_km": 6702.0129635732255,
      "eccentricity": 0.00011304,
      "inclination_deg": 53.1583,
      "raan_deg": 215.7245,
      "arg_perigee_deg": 47.1212,
      "mean_anomaly_deg": 16.5056,
      "mean_motion_rev_day": 15.82322001
    },
    {
      "epoch": "2026-04-03T20:00:01.999008Z",
      "apogee_km": 329.0187926853323,
      "perigee_km": 327.0163349325794,
      "latitude_deg": -46.53744548560205,
      "longitude_deg": -49.220201021446705,
      "height_km": 344.7741106760998,
      "semi_major_axis_km": 6706.154563808956,
      "eccentricity": 0.0001493,
      "inclination_deg": 53.1592,
      "raan_deg": 211.1286,
      "arg_perigee_deg": 88.3005,
      "mean_anomaly_deg": 156.3927,
      "mean_motion_rev_day": 15.80856407
    },
    {
      "epoch": "2026-04-04T20:00:01.999008Z",
      "apogee_km": 328.96683583066533,
      "perigee_km": 327.5289869056678,
      "latitude_deg": 0.6607060039017812,
      "longitude_deg": -107.53062557832318,
      "height_km": 329.19726649040695,
      "semi_major_axis_km": 6706.384911368166,
      "eccentricity": 0.0001072,
      "inclination_deg": 53.1585,
      "raan_deg": 206.1176,
      "arg_perigee_deg": 79.9884,
      "mean_anomaly_deg": 99.0768,
      "mean_motion_rev_day": 15.8077496
    },
    {
      "epoch": "2026-04-05T14:00:03.000384Z",
      "apogee_km": 328.3184532721398,
      "perigee_km": 327.3932944952585,
      "latitude_deg": 37.91224140057188,
      "longitude_deg": -57.0071413366105,
      "height_km": 330.55194822172217,
      "semi_major_axis_km": 6705.992873883699,
      "eccentricity": 6.898e-05,
      "inclination_deg": 53.1586,
      "raan_deg": 202.3585,
      "arg_perigee_deg": 117.5609,
      "mean_anomaly_deg": 12.4752,
      "mean_motion_rev_day": 15.80913582
    },
    {
      "epoch": "2026-04-05T20:00:03.000384Z",
      "apogee_km": 328.61749251725723,
      "perigee_km": 327.7751770504083,
      "latitude_deg": 47.28464314285281,
      "longitude_deg": -166.8372107153358,
      "height_km": 332.97708263884476,
      "semi_major_axis_km": 6706.3333347838325,
      "eccentricity": 6.28e-05,
      "inclination_deg": 53.1582,
      "raan_deg": 201.1056,
      "arg_perigee_deg": 131.1709,
      "mean_anomaly_deg": 342.4998,
      "mean_motion_rev_day": 15.80793196
    },
    {
      "epoch": "2026-04-06T06:00:02.000160Z",
      "apogee_km": 328.69815363839007,
      "perigee_km": 327.39608093017887,
      "latitude_deg": -26.60581700548585,
      "longitude_deg": -107.44766011312846,
      "height_km": 336.5578926816193,
      "semi_major_axis_km": 6706.184117284284,
      "eccentricity": 9.708e-05,
      "inclination_deg": 53.1584,
      "raan_deg": 199.0158,
      "arg_perigee_deg": 140.6481,
      "mean_anomaly_deg": 185.6003,
      "mean_motion_rev_day": 15.80845957
    },
    {
      "epoch": "2026-04-07T14:00:21.248928Z",
      "apogee_km": 328.5017035248238,
      "perigee_km": 327.0753531649443,
      "latitude_deg": 2.3077734124248462e-05,
      "longitude_deg": 146.38649027525972,
      "height_km": 328.83156812540415,
      "semi_major_axis_km": 6705.925528344884,
      "eccentricity": 0.00010635,
      "inclination_deg": 53.1587,
      "raan_deg": 192.3334,
      "arg_perigee_deg": 100.1043,
      "mean_anomaly_deg": 260.01,
      "mean_motion_rev_day": 15.80937397
    },
    {
      "epoch": "2026-04-07T17:02:25.352160Z",
      "apogee_km": 328.43359499069356,
      "perigee_km": 327.1018023175411,
      "latitude_deg": -2.5064094708562084e-05,
      "longitude_deg": 100.1109358559612,
      "height_km": 328.97456822022696,
      "semi_major_axis_km": 6705.904698654117,
      "eccentricity": 9.93e-05,
      "inclination_deg": 53.1584,
      "raan_deg": 191.6996,
      "arg_perigee_deg": 115.7002,
      "mean_anomaly_deg": 244.4123,
      "mean_motion_rev_day": 15.80944763
    },
    {
      "epoch": "2026-04-08T14:16:55.718976Z",
      "apogee_km": 328.71316297615886,
      "perigee_km": 326.99079676656766,
      "latitude_deg": 2.7504855945857987e-05,
      "longitude_deg": 136.17687549599455,
      "height_km": 329.1002129680409,
      "semi_major_axis_km": 6705.988979871363,
      "eccentricity": 0.00012842,
      "inclination_deg": 53.1581,
      "raan_deg": 187.2644,
      "arg_perigee_deg": 112.5734,
      "mean_anomaly_deg": 247.5425,
      "mean_motion_rev_day": 15.80914959
    },
    {
      "epoch": "2026-04-09T17:35:34.654272Z",
      "apogee_km": 328.7342264529216,
      "perigee_km": 326.9879845462492,
      "latitude_deg": -5.3910169029653e-05,
      "longitude_deg": 79.68976572584552,
      "height_km": 328.5740858860791,
      "semi_major_axis_km": 6705.998105499585,
      "eccentricity": 0.0001302,
      "inclination_deg": 53.1579,
      "raan_deg": 181.5612,
      "arg_perigee_deg": 76.4502,
      "mean_anomaly_deg": 283.6665,
      "mean_motion_rev_day": 15.80911732
    },
    {
      "epoch": "2026-04-10T11:47:59.455968Z",
      "apogee_km": 328.4004313323703,
      "perigee_km": 326.7548489596793,
      "latitude_deg": 3.7523510634943786e-05,
      "longitude_deg": 162.03666112020042,
      "height_km": 328.40962758541264,
      "semi_major_axis_km": 6705.714640146025,
      "eccentricity": 0.0001227,
      "inclination_deg": 53.1574,
      "raan_deg": 177.7591,
      "arg_perigee_deg": 84.0293,
      "mean_anomaly_deg": 276.087,
      "mean_motion_rev_day": 15.81011976
    },
    {
      "epoch": "2026-04-11T10:33:32.993280Z",
      "apogee_km": 328.84289967725726,
      "perigee_km": 326.751989317464,
      "latitude_deg": 4.2140522141846964e-05,
      "longitude_deg": 174.95993197024166,
      "height_km": 327.7840131812979,
      "semi_major_axis_km": 6705.93444449736,
      "eccentricity": 0.0001559,
      "inclination_deg": 53.1577,
      "raan_deg": 173.0068,
      "arg_perigee_deg": 26.9761,
      "mean_anomaly_deg": 333.1343,
      "mean_motion_rev_day": 15.80934244
    },
    {
      "epoch": "2026-04-12T21:27:23.563008Z",
      "apogee_km": 328.35494850376836,
      "perigee_km": 327.3503912512215,
      "latitude_deg": -5.348904126716646e-06,
      "longitude_deg": 2.7807035715871367,
      "height_km": 328.65264023379297,
      "semi_major_axis_km": 6705.989669877495,
      "eccentricity": 7.49e-05,
      "inclination_deg": 53.1581,
      "raan_deg": 165.7215,
      "arg_perigee_deg": 76.3769,
      "mean_anomaly_deg": 283.7337,
      "mean_motion_rev_day": 15.80914715
    }
  ]
}